OBJECT_NAME,OBJECT_ID,EPOCH,MEAN_MOTION,ECCENTRICITY,INCLINATION,RA_OF_ASC_NODE,ARG_OF_PERICENTER,MEAN_ANOMALY,EPHEMERIS_TYPE,CLASSIFICATION_TYPE,NORAD_CAT_ID,ELEMENT_SET_NO,REV_AT_EPOCH,BSTAR,MEAN_MOTION_DOT,MEAN_MOTION_DDOT,SEMIMAJOR_AXIS,SATELLITE_TYPE
BRITE-AUSTRIA,2013-009F,2024-12-31T14:04:40.293408,14.36131145,0.0010945,98.3817,188.7842,35.6986,324.493,0,U,39091,999,62059,0.0003262,9.08e-06,0.0,7149.446832423751,CubeSat
IRIDIUM 181,2023-068S,2024-12-31T15:49:22.034784,14.43579628,0.0002435,86.6868,278.8545,92.8794,267.2686,0,U,56726,999,8562,0.00040708,1.398e-05,0.0,7124.832818627708,Iridium Next
SITRO-AIS 11 (SHEFFER),2023-091AU,2024-12-31T22:17:48.623136,15.1852976,0.0011208,97.586,60.0001,138.4693,221.7394,0,U,57208,999,8349,0.0013426,0.00027774,0.0,6888.420273569207,CubeSat
PROMETHEUS 2-1,2016-067G,2025-01-01T00:24:11.695392,15.31633024,0.0009739,98.0906,197.7067,89.4729,270.7626,0,U,41854,999,44585,0.0020683,0.00063644,0.0,6849.076654471864,CubeSat
IRIDIUM 159,2018-061K,2024-12-31T15:54:54.217728,14.3421973,0.0002226,86.3965,279.2229,82.7294,277.4155,0,U,43578,999,33705,0.00026652,7.66e-06,0.0,7155.797568428427,Iridium Next
CUBEBUG-2 (LO-74),2013-066AA,2024-12-31T13:59:05.142624,14.8731204,0.0065123,97.8344,306.7065,348.9371,11.0409,0,U,39440,999,59763,0.0015499,0.00014506,0.0,6984.475188387251,CubeSat
GOMX-1,2013-066Q,2024-12-31T21:22:29.594784,14.6633573,0.0135178,97.7023,229.2567,343.68,16.0072,0,U,39430,999,59181,0.0012907,8.121e-05,0.0,7050.92718808555,Amateur Radio
SNAP-3 EDDIE,2015-058J,2024-12-31T20:21:05.402880,15.09589924,0.0127981,64.7647,53.653,244.0476,114.7414,0,U,40972,999,3757,0.0028083,0.00055219,0.0,6915.589120287331,CubeSat
QB50P1,2014-033R,2024-12-31T12:57:59.476608,15.0590692,0.0009878,98.0667,334.937,232.4669,127.566,0,U,40025,999,57251,0.0013736,0.00019968,0.0,6926.860189456236,Amateur Radio
MOVE-II,2018-099Y,2024-12-31T20:22:44.581440,15.35518885,0.0004675,97.4927,70.1175,14.1524,345.985,0,U,43780,999,33303,0.0025418,0.000886,0.0,6837.516697717921,CubeSat
AEROCUBE 8C,2016-067F,2024-12-31T23:39:16.751520,15.1360596,0.0007736,98.0924,186.0144,88.2242,271.9874,0,U,41853,999,44524,0.0011153,0.00020007,0.0,6903.350994090944,CubeSat
PHASE 3B (AO-10),1983-058B,2024-12-31T02:12:46.883520,2.05871509,0.6043467,27.2164,308.0831,329.3267,6.2135,0,U,14129,999,28451,0.0,-8.3e-07,0.0,26101.833163278945,Amateur Radio
CORVUS BC1,2017-042Y,2024-12-31T18:19:03.713952,15.01029535,0.0013072,97.3674,181.7302,84.7975,275.4742,0,U,42847,999,40706,0.00076257,9.71e-05,0.0,6941.857315534108,CubeSat
BRITE-AUSTRIA,2013-009F,2024-12-31T14:04:40.293408,14.36131145,0.0010945,98.3817,188.7842,35.6986,324.493,0,U,39091,999,62059,0.0003262,9.08e-06,0.0,7149.446832423751,CubeSat
HORYU-4,2016-012D,2024-12-31T15:57:39.132864,15.26864332,0.0007399,30.9996,119.4552,187.7533,172.2996,0,U,41340,999,48824,0.0013485,0.00036887,0.0,6863.329900486865,CubeSat
SITRO-AIS 12 (SMIRENNIY),2023-091AQ,2025-01-01T03:45:08.198496,15.18395368,0.0011404,97.5864,60.1755,137.167,223.0454,0,U,57204,999,8352,0.0014464,0.00029821,0.0,6888.826726741741,CubeSat
DELFI-N3XT,2013-066N,2024-12-31T11:50:07.322784,14.84280922,0.0091025,97.8385,280.3747,165.2058,195.1852,0,U,39428,999,59529,0.0016651,0.00014993,0.0,6993.980832523326,CubeSat
BEESAT-8,2021-022AP,2024-12-30T17:18:46.450944,15.73466822,0.0011434,97.4765,273.5903,103.2949,256.959,0,U,48085,999,20823,0.0029596,0.00432562,0.0,6727.134559725418,CubeSat
CANX-2,2008-021H,2024-12-30T15:50:39.171840,14.99077033,0.0013596,97.7953,328.7501,48.4298,311.8088,0,U,32790,999,90476,0.0010983,0.00013317,0.0,6947.883712407913,CubeSat
ROBUSTA-3A (MEDITERRANEE),2024-128J,2024-12-30T18:05:23.034048,15.00669781,0.0031607,61.991,279.6135,9.7768,350.393,0,U,60243,999,2605,0.0016749,0.00021396,0.0,6942.966714016182,CubeSat
EYESAT A (AO-27),1993-061C,2024-12-31T10:06:01.454688,14.30694791,0.0007787,98.7625,60.9973,216.3024,143.763,0,U,22825,999,63081,0.00020982,5.04e-06,0.0,7167.546360561602,Amateur Radio
PROMETHEUS 2-1,2016-067G,2025-01-01T00:24:11.695392,15.31633024,0.0009739,98.0906,197.7067,89.4729,270.7626,0,U,41854,999,44585,0.0020683,0.00063644,0.0,6849.076654471864,CubeSat
IRIDIUM 128,2017-039J,2024-12-31T12:38:10.630752,14.3421698,0.0001938,86.3962,247.7079,92.7575,267.3842,0,U,42811,999,39363,6.2005e-05,1.93e-06,0.0,7155.806715550655,Iridium Next
